[{"OBJECT_NAME":"GEESAT-2 04","OBJECT_ID":"2024-023D","EPOCH":"2026-03-09T22:58:49.443744","MEAN_MOTION":14.96681304,"ECCENTRICITY":0.00064656,"INCLINATION":49.992,"RA_OF_ASC_NODE":72.838,"ARG_OF_PERICENTER":6.7244,"MEAN_ANOMALY":353.3785,"EPHEMERIS_TYPE":0,"CLASSIFICATION_TYPE":"U","NORAD_CAT_ID":58908,"ELEMENT_SET_NO":999,"REV_AT_EPOCH":11446,"BSTAR":0.0002767609,"MEAN_MOTION_DOT":2.943e-5,"MEAN_MOTION_DDOT":0},{"OBJECT_NAME":"COSMOS 1823 DEB","OBJECT_ID":"1987-020EQ","EPOCH":"2026-03-01T18:15:52.328448","MEAN_MOTION":14.90188405,"ECCENTRICITY":0.00284391,"INCLINATION":74.0391,"RA_OF_ASC_NODE":216.9622,"ARG_OF_PERICENTER":41.2551,"MEAN_ANOMALY":319.0772,"EPHEMERIS_TYPE":0,"CLASSIFICATION_TYPE":"U","NORAD_CAT_ID":39816,"ELEMENT_SET_NO":999,"REV_AT_EPOCH":61549,"BSTAR":0.00021558796,"MEAN_MOTION_DOT":2.066e-5,"MEAN_MOTION_DDOT":0}]
